{
  "type": "FeatureCollection",
  "features": [
    {
      "type": "Feature",
      "properties": {
        "norad_id": 30596,
        "name": "FENGYUN 1C DEB",
        "group": "fengyun-1c-debris",
        "lat": 24.706458671971735,
        "lon": -6.246352410726067,
        "alt_km": 902.6007915122282,
        "timestamp": "2025-12-26T06:43:29.789073+00:00",
        "meta_object_name": "FENGYUN 1C DEB",
        "meta_object_id": "1999-025AMB",
        "meta_epoch": "2025-12-24T23:04:02.212608",
        "meta_mean_motion": 14.34388847,
        "meta_eccentricity": 0.02471633,
        "meta_inclination": 98.4138,
        "meta_ra_of_asc_node": 356.3727,
        "meta_arg_of_pericenter": 252.5052,
        "meta_mean_anomaly": 163.1278,
        "meta_ephemeris_type": 0,
        "meta_classification_type": "U",
        "meta_norad_cat_id": 30596,
        "meta_element_set_no": 999,
        "meta_rev_at_epoch": 98736,
        "meta_bstar": 0.00025002681,
        "meta_mean_motion_dot": 9.38e-06,
        "meta_mean_motion_ddot": 0,
        "tle_line1": "1 30596U 99025AMB 25358.96113672  .00000938  00000+0  25003-3 0  9998",
        "tle_line2": "2 30596  98.4138 356.3727 0247163 252.5052 163.1278 14.34388847987366"
      },
      "geometry": {
        "type": "Point",
        "coordinates": [
          -6.246352410726067,
          24.706458671971735
        ]
      }
    },
    {
      "type": "Feature",
      "properties": {
        "norad_id": 30597,
        "name": "FENGYUN 1C DEB",
        "group": "fengyun-1c-debris",
        "lat": -55.273601225784084,
        "lon": 105.45007530509945,
        "alt_km": 607.5546337091655,
        "timestamp": "2025-12-26T06:43:29.789083+00:00",
        "meta_object_name": "FENGYUN 1C DEB",
        "meta_object_id": "1999-025AMC",
        "meta_epoch": "2025-12-24T07:02:47.375232",
        "meta_mean_motion": 14.93450835,
        "meta_eccentricity": 0.00466134,
        "meta_inclination": 98.9402,
        "meta_ra_of_asc_node": 296.3208,
        "meta_arg_of_pericenter": 126.7159,
        "meta_mean_anomaly": 233.8353,
        "meta_ephemeris_type": 0,
        "meta_classification_type": "U",
        "meta_norad_cat_id": 30597,
        "meta_element_set_no": 999,
        "meta_rev_at_epoch": 98709,
        "meta_bstar": 0.0051085907,
        "meta_mean_motion_dot": 0.0005519,
        "meta_mean_motion_ddot": 0,
        "tle_line1": "1 30597U 99025AMC 25358.29360388  .00055190  00000+0  51086-2 0  9992",
        "tle_line2": "2 30597  98.9402 296.3208 0046613 126.7159 233.8353 14.93450835987091"
      },
      "geometry": {
        "type": "Point",
        "coordinates": [
          105.45007530509945,
          -55.273601225784084
        ]
      }
    },
    {
      "type": "Feature",
      "properties": {
        "norad_id": 30599,
        "name": "FENGYUN 1C DEB",
        "group": "fengyun-1c-debris",
        "lat": -4.98575724641443,
        "lon": 12.300308742888465,
        "alt_km": 685.038974324063,
        "timestamp": "2025-12-26T06:43:29.789093+00:00",
        "meta_object_name": "FENGYUN 1C DEB",
        "meta_object_id": "1999-025AME",
        "meta_epoch": "2025-12-25T12:08:34.103328",
        "meta_mean_motion": 14.19750918,
        "meta_eccentricity": 0.0301667,
        "meta_inclination": 98.6025,
        "meta_ra_of_asc_node": 10.79,
        "meta_arg_of_pericenter": 307.7466,
        "meta_mean_anomaly": 49.6723,
        "meta_ephemeris_type": 0,
        "meta_classification_type": "U",
        "meta_norad_cat_id": 30599,
        "meta_element_set_no": 999,
        "meta_rev_at_epoch": 97348,
        "meta_bstar": 0.00071007,
        "meta_mean_motion_dot": 2.321e-05,
        "meta_mean_motion_ddot": 0,
        "tle_line1": "1 30599U 99025AME 25359.50595027  .00002321  00000+0  71007-3 0  9993",
        "tle_line2": "2 30599  98.6025  10.7900 0301667 307.7466  49.6723 14.19750918973488"
      },
      "geometry": {
        "type": "Point",
        "coordinates": [
          12.300308742888465,
          -4.98575724641443
        ]
      }
    },
    {
      "type": "Feature",
      "properties": {
        "norad_id": 30600,
        "name": "FENGYUN 1C DEB",
        "group": "fengyun-1c-debris",
        "lat": -46.60284296118505,
        "lon": 115.11849750228403,
        "alt_km": 649.2769309454134,
        "timestamp": "2025-12-26T06:43:29.789102+00:00",
        "meta_object_name": "FENGYUN 1C DEB",
        "meta_object_id": "1999-025AMF",
        "meta_epoch": "2025-12-25T19:24:36.776736",
        "meta_mean_motion": 14.07679207,
        "meta_eccentricity": 0.0326316,
        "meta_inclination": 98.3872,
        "meta_ra_of_asc_node": 303.656,
        "meta_arg_of_pericenter": 209.8405,
        "meta_mean_anomaly": 148.3806,
        "meta_ephemeris_type": 0,
        "meta_classification_type": "U",
        "meta_norad_cat_id": 30600,
        "meta_element_set_no": 999,
        "meta_rev_at_epoch": 94616,
        "meta_bstar": 0.0020960292,
        "meta_mean_motion_dot": 5.732e-05,
        "meta_mean_motion_ddot": 0,
        "tle_line1": "1 30600U 99025AMF 25359.80875899  .00005732  00000+0  20960-2 0  9997",
        "tle_line2": "2 30600  98.3872 303.6560 0326316 209.8405 148.3806 14.07679207946169"
      },
      "geometry": {
        "type": "Point",
        "coordinates": [
          115.11849750228403,
          -46.60284296118505
        ]
      }
    },
    {
      "type": "Feature",
      "properties": {
        "norad_id": 30602,
        "name": "FENGYUN 1C DEB",
        "group": "fengyun-1c-debris",
        "lat": 35.25771333989612,
        "lon": -90.32279916616233,
        "alt_km": 579.0556888281089,
        "timestamp": "2025-12-26T06:43:29.789113+00:00",
        "meta_object_name": "FENGYUN 1C DEB",
        "meta_object_id": "1999-025AMH",
        "meta_epoch": "2025-12-25T17:56:34.870848",
        "meta_mean_motion": 14.93131495,
        "meta_eccentricity": 0.00142403,
        "meta_inclination": 99.0318,
        "meta_ra_of_asc_node": 275.5227,
        "meta_arg_of_pericenter": 86.7256,
        "meta_mean_anomaly": 328.1239,
        "meta_ephemeris_type": 0,
        "meta_classification_type": "U",
        "meta_norad_cat_id": 30602,
        "meta_element_set_no": 999,
        "meta_rev_at_epoch": 97999,
        "meta_bstar": 0.0074621756,
        "meta_mean_motion_dot": 0.0007876,
        "meta_mean_motion_ddot": 0,
        "tle_line1": "1 30602U 99025AMH 25359.74762582  .00078760  00000+0  74622-2 0  9991",
        "tle_line2": "2 30602  99.0318 275.5227 0014240  86.7256 328.1239 14.93131495979999"
      },
      "geometry": {
        "type": "Point",
        "coordinates": [
          -90.32279916616233,
          35.25771333989612
        ]
      }
    },
    {
      "type": "Feature",
      "properties": {
        "norad_id": 30603,
        "name": "FENGYUN 1C DEB",
        "group": "fengyun-1c-debris",
        "lat": 64.54110490850891,
        "lon": -140.11291621911323,
        "alt_km": 862.8450534128697,
        "timestamp": "2025-12-26T06:43:29.789123+00:00",
        "meta_object_name": "FENGYUN 1C DEB",
        "meta_object_id": "1999-025AMJ",
        "meta_epoch": "2025-12-25T15:09:58.910112",
        "meta_mean_motion": 13.84161498,
        "meta_eccentricity": 0.0183528,
        "meta_inclination": 98.4086,
        "meta_ra_of_asc_node": 21.2063,
        "meta_arg_of_pericenter": 170.2079,
        "meta_mean_anomaly": 316.9963,
        "meta_ephemeris_type": 0,
        "meta_classification_type": "U",
        "meta_norad_cat_id": 30603,
        "meta_element_set_no": 999,
        "meta_rev_at_epoch": 95054,
        "meta_bstar": 0.0012471,
        "meta_mean_motion_dot": 1.547e-05,
        "meta_mean_motion_ddot": 0,
        "tle_line1": "1 30603U 99025AMJ 25359.63193183  .00001547  00000+0  12471-2 0  9998",
        "tle_line2": "2 30603  98.4086  21.2063 0183528 170.2079 316.9963 13.84161498950541"
      },
      "geometry": {
        "type": "Point",
        "coordinates": [
          -140.11291621911323,
          64.54110490850891
        ]
      }
    },
    {
      "type": "Feature",
      "properties": {
        "norad_id": 30604,
        "name": "FENGYUN 1C DEB",
        "group": "fengyun-1c-debris",
        "lat": -77.82569219779734,
        "lon": 171.28691085295944,
        "alt_km": 756.7792175159993,
        "timestamp": "2025-12-26T06:43:29.789133+00:00",
        "meta_object_name": "FENGYUN 1C DEB",
        "meta_object_id": "1999-025AMK",
        "meta_epoch": "2025-12-25T00:55:32.475648",
        "meta_mean_motion": 14.2363064,
        "meta_eccentricity": 0.02089738,
        "meta_inclination": 98.4011,
        "meta_ra_of_asc_node": 33.3358,
        "meta_arg_of_pericenter": 330.8132,
        "meta_mean_anomaly": 52.6621,
        "meta_ephemeris_type": 0,
        "meta_classification_type": "U",
        "meta_norad_cat_id": 30604,
        "meta_element_set_no": 999,
        "meta_rev_at_epoch": 98014,
        "meta_bstar": 0.00029694807,
        "meta_mean_motion_dot": 8.01e-06,
        "meta_mean_motion_ddot": 0,
        "tle_line1": "1 30604U 99025AMK 25359.03857032  .00000801  00000+0  29695-3 0  9992",
        "tle_line2": "2 30604  98.4011  33.3358 0208973 330.8132  52.6621 14.23630640980145"
      },
      "geometry": {
        "type": "Point",
        "coordinates": [
          171.28691085295944,
          -77.82569219779734
        ]
      }
    }
  ]
}